{"type":"FeatureCollection","features":[{"type":"Feature","properties":{"cut":1401,"comuna":"POZO ALMONTE"},"geometry":{"type":"Polygon","coordinates":[[[-68.99252634999993,-19.92022832899994],[-68.9993071479999,-19.915189178999924],[-69.00623061699991,-19.914427306999926],[-69.01767915999994,-19.920947070999944],[-69.0213639609999,-19.92075462999992],[-69.02683130199995,-19.92330980899993],[-69.03745778899992,-19.922421985999904],[-69.04388691499992,-19.925965641999937],[-69.05299576099992,-19.92839493999992],[-69.05420462899991,-19.93026968299995],[-69.05269004999991,-19.94072971399993],[-69.06087044999992,-19.94333466699993],[-69.0637372299999,-19.945443153999918],[-69.07077022399994,-19.94485452099991],[-69.08386994099993,-19.962339996999958],[-69.08628749899992,-19.96342287999994],[-69.0951188109999,-19.963447665999922],[-69.09888599199991,-19.96707860899994],[-69.10979629999991,-19.970880983999905],[-69.11884469799992,-19.970582169999943],[-69.12341386199995,-19.968498863999912],[-69.12688441999995,-19.968379222999943],[-69.1325918789999,-19.975172271999952],[-69.14200096999991,-19.97947184499992],[-69.1465470839999,-19.986030969999945],[-69.1527790259999,-19.988809046999904],[-69.17428879599993,-19.99007833199994],[-69.17788575199995,-19.991744758999914],[-69.18450232499993,-19.991474311999923],[-69.1964586119999,-19.98601199399991],[-69.2200725909999,-19.985017417999927],[-69.24538184399995,-19.978274916999908],[-69.27297269299993,-19.97509970099992],[-69.2822917549999,-19.97895246899992],[-69.29194444899991,-19.97861456299995],[-69.3242266179999,-19.98934016299995],[-69.81539000099991,-20.102149999999938],[-69.89304999899991,-20.048539999999946],[-69.91376999999994,-20.22900999999996],[-69.96762000399991,-20.321179998999924],[-70.02821999999992,-20.305829999999958],[-70.10949999999991,-20.351309999999955],[-70.07733999999994,-20.465689999999938],[-70.0289499989999,-20.58047999999991],[-70.05235999999991,-20.694939999999917],[-69.99582999899991,-20.83615999999995],[-69.81984999999992,-21.117099999999937],[-69.89074999999991,-21.110219999999913],[-69.8816799999999,-21.304539999999918],[-69.92974999899991,-21.37295999999992],[-69.93023450499993,-21.424600488999943],[-69.92472813799992,-21.426169113999947],[-69.91932362699993,-21.425603090999914],[-69.91238814499991,-21.429224419999912],[-69.90410602799994,-21.425140961999944],[-69.89941695699991,-21.430149695999944],[-69.89067840699994,-21.43160523499995],[-69.8844238069999,-21.434093336999922],[-69.88124391899993,-21.43687871499992],[-69.87347626799993,-21.436157172999913],[-69.8696762319999,-21.433508213999914],[-69.8633365039999,-21.43432955199995],[-69.86120887099992,-21.43684258099995],[-69.85812573099992,-21.43790968399992],[-69.85536333099992,-21.437248138999905],[-69.85303141599991,-21.439492298999937],[-69.8415391389999,-21.436801267999954],[-69.8310540729999,-21.44247013499995],[-69.8263372319999,-21.43919250899995],[-69.82327279499992,-21.439964604999943],[-69.81862951099993,-21.436483106999958],[-69.8094616379999,-21.439675717999933],[-69.8017944099999,-21.440545121999946],[-69.7962819679999,-21.438381739999954],[-69.79150672199995,-21.440214607999906],[-69.7876638109999,-21.437388644999942],[-69.7810336739999,-21.440699921999908],[-69.77895113999995,-21.437644569999918],[-69.78238992399992,-21.433475296999916],[-69.78205949599993,-21.432052123999938],[-69.7798161369999,-21.43092841899994],[-69.77683339099991,-21.42617600999995],[-69.7717429349999,-21.425160165999955],[-69.7681335229999,-21.423309592999942],[-69.76697806899995,-21.42068551199992],[-69.76424648299991,-21.42040226799992],[-69.76258099899991,-21.425403814999925],[-69.75583514399995,-21.42778536299994],[-69.75616014999991,-21.430847583999935],[-69.7548592679999,-21.43383794999994],[-69.74707098199991,-21.43767898099992],[-69.7381654799999,-21.44440762599993],[-69.73490112999991,-21.44444178799995],[-69.7342976079999,-21.44744254999995],[-69.73230842299995,-21.446112444999926],[-69.7285029489999,-21.44950332399992],[-69.72532869499992,-21.448537124999916],[-69.7227500589999,-21.45202772999994],[-69.71852332599991,-21.450448501999915],[-69.7133389569999,-21.452508611999917],[-69.71178255799992,-21.45045750999992],[-69.70770144599993,-21.449989772999913],[-69.70643446399993,-21.453123173999927],[-69.70151171599991,-21.455221412999947],[-69.7011330329999,-21.45318885599994],[-69.69752189999991,-21.452872251999906],[-69.69584881199995,-21.45076361799994],[-69.69372146899991,-21.450454228999945],[-69.6885703339999,-21.454161479999925],[-69.68802572899995,-21.458916306999924],[-69.6838989179999,-21.458693783999934],[-69.6785692279999,-21.461740145999954],[-69.67734095499992,-21.460964599999954],[-69.6670459419999,-21.46210575099991],[-69.66489399299991,-21.474458630999948],[-69.66097706099993,-21.478750531999935],[-69.66189085399992,-21.481419599999924],[-69.65558689699992,-21.485505047999936],[-69.64983678199991,-21.495580625999935],[-69.6442710039999,-21.49912287099994],[-69.6393202029999,-21.499749322999946],[-69.64074952199991,-21.506158055999947],[-69.63587277099992,-21.50986075499992],[-69.6353601209999,-21.514840569999933],[-69.62964747399991,-21.52044531599995],[-69.62977472499995,-21.526045477999958],[-69.6260140199999,-21.528976171999943],[-69.62762365999993,-21.531592820999947],[-69.63322987599992,-21.531595758999913],[-69.62760488099991,-21.53485810199993],[-69.62804400399995,-21.53777737599995],[-69.6250739649999,-21.540419996999958],[-69.62586543999993,-21.545710656999915],[-69.61058279699995,-21.550188179999907],[-69.61059882499995,-21.551777965999918],[-69.60613844699992,-21.55355951899992],[-69.60500856599992,-21.55584767299996],[-69.5987985189999,-21.560495888999924],[-69.59725506399991,-21.566694786999903],[-69.5945966509999,-21.56811033799994],[-69.59435108199995,-21.572418565999953],[-69.58632433399993,-21.583621513999958],[-69.58668286799991,-21.586066210999945],[-69.58472152999991,-21.587516071999914],[-69.58310863899993,-21.592198277999955],[-69.5780329339999,-21.596418721999953],[-69.57922358499991,-21.599012659999914],[-69.57877362799991,-21.60563233499994],[-69.57259724199992,-21.60992975499994],[-69.57209845299991,-21.61251247599995],[-69.56690246199992,-21.615338253999937],[-69.56617957999993,-21.62072970899993],[-69.5633843299999,-21.620794117999935],[-69.56274856199991,-21.623162812999908],[-69.55916464899991,-21.62329883399991],[-69.55790257799993,-21.621713146999923],[-69.5569404119999,-21.62325167499995],[-69.55775221099992,-21.624936420999916],[-69.55328908399991,-21.626486635999925],[-69.55126560399992,-21.630609919999927],[-69.31306999999993,-21.398169999999936],[-68.86080999899991,-21.28511999999995],[-68.9005100039999,-21.172950000999947],[-68.96731999999992,-21.097399999999936],[-68.96656999999993,-20.912809999999922],[-68.95447000099995,-20.828260003999958],[-68.95669007499993,-20.825932809999927],[-68.95936991199994,-20.817349073999935],[-68.96313172799995,-20.811410141999943],[-68.96448751199995,-20.803660976999936],[-68.9630916719999,-20.800209749999908],[-68.96544999999992,-20.79248999999993],[-68.95718650899994,-20.78402420799995],[-68.9582351219999,-20.776009685999952],[-68.9556321419999,-20.771613475999914],[-68.95772718699993,-20.76300876299996],[-68.96220397899992,-20.76105857899995],[-68.96330493199991,-20.75934593799991],[-68.95913470399995,-20.759717390999924],[-68.9561089849999,-20.75833842599991],[-68.95413464499995,-20.75642038999996],[-68.95400845499995,-20.752375582999946],[-68.95935480299994,-20.73436849399991],[-68.95870569099992,-20.73033125899991],[-68.96126424699992,-20.72582581699993],[-68.96155713099995,-20.711513416999935],[-68.96424916899991,-20.705065301999923],[-68.96213549799995,-20.694840874999954],[-68.96756671499992,-20.688971373999948],[-68.97428032999994,-20.687817689999918],[-68.97807059999991,-20.684591516999944],[-68.98492838399994,-20.68269019999991],[-68.99086298999993,-20.67921482199995],[-68.99666105099993,-20.67845725099994],[-68.9990471829999,-20.676674875999936],[-69.0027706649999,-20.675821654999936],[-69.00578188399993,-20.677284208999936],[-69.01216029699992,-20.675638421999906],[-69.0181828819999,-20.67792324599992],[-69.02035258799992,-20.68051307299993],[-69.03204119599991,-20.68481773399992],[-69.03480988799993,-20.684840350999934],[-69.03730140599993,-20.682253266999908],[-69.03968275599993,-20.68285265599991],[-69.04343422699992,-20.688268670999946],[-69.04517791099994,-20.687950618999935],[-69.04748472199992,-20.68964388799992],[-69.04768974199993,-20.685691421999934],[-69.04918999999995,-20.684999999999945],[-69.05250705599991,-20.686407475999943],[-69.05731418099992,-20.68478274599994],[-69.06160472699992,-20.686574956999948],[-69.06454946199995,-20.685364664999952],[-69.06862140599992,-20.68634134699994],[-69.07060999999993,-20.687719999999956],[-69.0728364119999,-20.69564842999995],[-69.0775691529999,-20.703740670999935],[-69.08296530699994,-20.710065543999917],[-69.0878173609999,-20.711691698999914],[-69.09028215199993,-20.714167463999956],[-69.09727065299995,-20.71503322299992],[-69.1026011379999,-20.719411863999937],[-69.11014723399995,-20.72046850399994],[-69.1182046749999,-20.724459101999912],[-69.1295135599999,-20.722889210999938],[-69.13504852199992,-20.724748646999956],[-69.13982915299994,-20.724515771999904],[-69.15380700599991,-20.71785112899994],[-69.16019577799995,-20.71653013899993],[-69.16925091599995,-20.71877603899992],[-69.17404641399992,-20.72127632699994],[-69.18356520899994,-20.72120381299993],[-69.1922282029999,-20.72870955099995],[-69.19921918299991,-20.729672312999924],[-69.20667347499995,-20.72859886799995],[-69.21173529999993,-20.730471509999916],[-69.21560173599994,-20.734286926999914],[-69.22565692699993,-20.73627807999992],[-69.23218149899992,-20.736613839999904],[-69.24103279099995,-20.734848124999928],[-69.24794212499995,-20.726195857999926],[-69.2621728709999,-20.717657567999936],[-69.27021517599991,-20.71094410099994],[-69.27646925599993,-20.70949376199991],[-69.28881000099994,-20.709349998999926],[-69.29654999999991,-20.70651999899991],[-69.2975899999999,-20.704959998999925],[-69.30807999899992,-20.702969998999947],[-69.31471999999991,-20.703469998999935],[-69.33044999899994,-20.71341999899994],[-69.33942999899995,-20.713969999999904],[-69.35189999999994,-20.718959999999925],[-69.36636000099992,-20.72088999899995],[-69.37882999999994,-20.728799998999932],[-69.38886999899995,-20.730419998999935],[-69.39117000099992,-20.731860000999916],[-69.40140999899995,-20.732449999999915],[-69.40615999999994,-20.73093999899993],[-69.41777999899995,-20.73165999999992],[-69.44019999999995,-20.728869998999926],[-69.4531399999999,-20.73156999999992],[-69.45946999899991,-20.730809999999906],[-69.47505999999993,-20.734289177999926],[-69.47505998999992,-20.253207902999918],[-69.44298953299995,-20.253976284999908],[-69.4257399999999,-20.258479999999906],[-69.42039695299991,-20.25561188799992],[-69.4025732419999,-20.254699966999908],[-69.38620791199992,-20.256037085999935],[-69.3555970939999,-20.254103998999938],[-69.3307034799999,-20.247346510999932],[-69.29701246299993,-20.25082107299994],[-69.2792997379999,-20.246270414999913],[-69.25717357299993,-20.24337417399994],[-69.24668922399991,-20.24543885199995],[-69.23170999999991,-20.245909999999924],[-69.2246458059999,-20.243546592999905],[-69.21539405499993,-20.24360915899996],[-69.2025445779999,-20.24539121899994],[-69.19257755899991,-20.24939463599992],[-69.1858889049999,-20.25568742999991],[-69.17953999999992,-20.256739999999922],[-69.17077401499995,-20.264571185999955],[-69.1543309939999,-20.269569927999953],[-69.14318821799992,-20.270586476999938],[-69.13135509599994,-20.274964170999908],[-69.1236750729999,-20.27354413699993],[-69.11788421199992,-20.27739338799995],[-69.11525565699992,-20.284222434999947],[-69.11281810899993,-20.287127583999904],[-69.10882722699995,-20.28905927699992],[-69.10125888899995,-20.289613139999915],[-69.09277401899993,-20.287525999999957],[-69.0872221809999,-20.287614659999917],[-69.06751285899992,-20.29723712099991],[-69.06162999999992,-20.295129999999915],[-69.04926876699994,-20.29466510599991],[-69.04227969399994,-20.288539287999924],[-69.03317923199995,-20.291395998999917],[-69.02118079699994,-20.289093528999956],[-69.01755522799994,-20.283853206999936],[-69.01316516499992,-20.28163722699992],[-69.0093884879999,-20.27709020599991],[-69.00979861299993,-20.271917061999943],[-69.00701455299992,-20.25642855199993],[-68.99917666899995,-20.246440881999945],[-68.99209999999994,-20.24150999999995],[-68.98673098899991,-20.23562680799995],[-68.98195169399992,-20.22934356099995],[-68.98087518799991,-20.224334187999943],[-68.97587072899995,-20.21759017599993],[-68.96305417699995,-20.207959682999956],[-68.96147480299993,-20.204383804999907],[-68.96217111599992,-20.19520857899994],[-68.96553999999992,-20.187459992999948],[-68.96282000499991,-20.18274998699991],[-68.97026999999991,-20.178829999999948],[-68.98630032299991,-20.178013777999922],[-68.99079159399992,-20.172993857999927],[-68.9915242639999,-20.162869761999957],[-68.9975399999999,-20.149589999999932],[-68.9920793359999,-20.14555306299991],[-68.99254509699995,-20.14113610399994],[-68.99669999999992,-20.13686999999993],[-69.00121281899993,-20.126709406999908],[-69.00720881099994,-20.120236891999923],[-69.00907016999992,-20.11414008199995],[-69.00842500899995,-20.104831924999928],[-69.00655244899991,-20.100870794999935],[-68.99570724099993,-20.08916176999992],[-68.9836699459999,-20.081209976999958],[-68.98076000999993,-20.067880002999914],[-68.98084999999992,-20.05728999999991],[-68.97879368999992,-20.047903876999953],[-68.96985785899994,-20.025920611999936],[-68.96913399499994,-20.02001187199994],[-68.97158000099995,-20.00652999999994],[-68.97851563299992,-19.997272837999958],[-68.97961988799995,-19.99395480399994],[-68.97900257599991,-19.987798390999956],[-68.98241285699993,-19.981681109999954],[-68.9805755939999,-19.966089352999916],[-68.97900000599992,-19.962850002999915],[-68.98043156299991,-19.95483696699995],[-68.97858789199995,-19.937549089999948],[-68.98631413299995,-19.922687164999957],[-68.99252634999993,-19.92022832899994]]]}},{"type":"Feature","properties":{"cut":1405,"comuna":"PICA"},"geometry":{"type":"Polygon","coordinates":[[[-68.88101424599995,-19.635771226999907],[-68.88662501199991,-19.630881450999937],[-68.90366915499993,-19.60804382899994],[-68.90700707999991,-19.60016368899994],[-68.90863999899994,-19.599699999999928],[-68.9290918609999,-19.67466873199993],[-68.9297366799999,-19.74677182599993],[-69.01455126999991,-19.825153059999934],[-69.03981445199992,-19.837294749999955],[-69.0407511329999,-19.86651034399995],[-69.0103099989999,-19.91673000199995],[-69.00623061699991,-19.914427306999926],[-68.9993071479999,-19.915189178999924],[-68.99437087399991,-19.917960296999922],[-68.9931114179999,-19.919935419999945],[-68.98631413299995,-19.922687164999957],[-68.97858789199995,-19.937549089999948],[-68.98043156299991,-19.95483696699995],[-68.97900000599992,-19.962850002999915],[-68.9805755939999,-19.966089352999916],[-68.98241285699993,-19.981681109999954],[-68.97900257599991,-19.987798390999956],[-68.97961988799995,-19.99395480399994],[-68.97851563299992,-19.997272837999958],[-68.97158000099995,-20.00652999999994],[-68.96913399499994,-20.02001187199994],[-68.96985785899994,-20.025920611999936],[-68.97879368999992,-20.047903876999953],[-68.98084999999992,-20.05728999999991],[-68.98076000999993,-20.067880002999914],[-68.9836699459999,-20.081209976999958],[-68.99570724099993,-20.08916176999992],[-69.00655244899991,-20.100870794999935],[-69.00842500899995,-20.104831924999928],[-69.00907016999992,-20.11414008199995],[-69.00720881099994,-20.120236891999923],[-69.00121281899993,-20.126709406999908],[-68.99669999999992,-20.13686999999993],[-68.99254509699995,-20.14113610399994],[-68.9920793359999,-20.14555306299991],[-68.9975399999999,-20.149589999999932],[-68.9915242639999,-20.162869761999957],[-68.99079159399992,-20.172993857999927],[-68.98630032299991,-20.178013777999922],[-68.97026999999991,-20.178829999999948],[-68.96282000499991,-20.18274998699991],[-68.96553999999992,-20.187459992999948],[-68.96217111599992,-20.19520857899994],[-68.96147480299993,-20.204383804999907],[-68.96305417699995,-20.207959682999956],[-68.97587072899995,-20.21759017599993],[-68.98087518799991,-20.224334187999943],[-68.98195169399992,-20.22934356099995],[-68.98673098899991,-20.23562680799995],[-68.99209999999994,-20.24150999999995],[-68.99917666899995,-20.246440881999945],[-69.00701455299992,-20.25642855199993],[-69.00979861299993,-20.271917061999943],[-69.0093884879999,-20.27709020599991],[-69.01260195599991,-20.28112405199994],[-69.01755522799994,-20.283853206999936],[-69.0199512499999,-20.287990989999912],[-69.0234272909999,-20.29023888699993],[-69.03317923199995,-20.291395998999917],[-69.04227969399994,-20.288539287999924],[-69.04926876699994,-20.29466510599991],[-69.06162999999992,-20.295129999999915],[-69.06839107199994,-20.297179353999923],[-69.0872221809999,-20.287614659999917],[-69.09277401899993,-20.287525999999957],[-69.10125888899995,-20.289613139999915],[-69.10882722699995,-20.28905927699992],[-69.11281810899993,-20.287127583999904],[-69.11525565699992,-20.284222434999947],[-69.11788421199992,-20.27739338799995],[-69.1236750729999,-20.27354413699993],[-69.13135509599994,-20.274964170999908],[-69.14318821799992,-20.270586476999938],[-69.1543309939999,-20.269569927999953],[-69.17077401499995,-20.264571185999955],[-69.17953999999992,-20.256739999999922],[-69.1858889049999,-20.25568742999991],[-69.19257755899991,-20.24939463599992],[-69.2025445779999,-20.24539121899994],[-69.21730183099993,-20.243470902999945],[-69.22644616499991,-20.243816087999903],[-69.23170999999991,-20.245909999999924],[-69.24668922399991,-20.24543885199995],[-69.25717357299993,-20.24337417399994],[-69.2792997379999,-20.246270414999913],[-69.29701246299993,-20.25082107299994],[-69.3307034799999,-20.247346510999932],[-69.3555970939999,-20.254103998999938],[-69.38620791199992,-20.256037085999935],[-69.4025732419999,-20.254699966999908],[-69.42039695299991,-20.25561188799992],[-69.4257399999999,-20.258479999999906],[-69.44298953299995,-20.253976284999908],[-69.47505998999992,-20.253207902999918],[-69.47505999999993,-20.734289177999926],[-69.45946999899991,-20.730809999999906],[-69.4531399999999,-20.73156999999992],[-69.44019999999995,-20.728869998999926],[-69.41777999899995,-20.73165999999992],[-69.40615999999994,-20.73093999899993],[-69.40140999899995,-20.732449999999915],[-69.39117000099992,-20.731860000999916],[-69.38886999899995,-20.730419998999935],[-69.37882999999994,-20.728799998999932],[-69.36636000099992,-20.72088999899995],[-69.35189999999994,-20.718959999999925],[-69.33942999899995,-20.713969999999904],[-69.33044999899994,-20.71341999899994],[-69.31471999999991,-20.703469998999935],[-69.30807999899992,-20.702969998999947],[-69.2975899999999,-20.704959998999925],[-69.29654999999991,-20.70651999899991],[-69.28881000099994,-20.709349998999926],[-69.27646925599993,-20.70949376199991],[-69.27021517599991,-20.71094410099994],[-69.2621728709999,-20.717657567999936],[-69.24794212499995,-20.726195857999926],[-69.24103279099995,-20.734848124999928],[-69.23218149899992,-20.736613839999904],[-69.22565692699993,-20.73627807999992],[-69.21560173599994,-20.734286926999914],[-69.21173529999993,-20.730471509999916],[-69.20667347499995,-20.72859886799995],[-69.19921918299991,-20.729672312999924],[-69.1922282029999,-20.72870955099995],[-69.18356520899994,-20.72120381299993],[-69.17404641399992,-20.72127632699994],[-69.16925091599995,-20.71877603899992],[-69.16019577799995,-20.71653013899993],[-69.15380700599991,-20.71785112899994],[-69.13982915299994,-20.724515771999904],[-69.13504852199992,-20.724748646999956],[-69.1295135599999,-20.722889210999938],[-69.1182046749999,-20.724459101999912],[-69.11014723399995,-20.72046850399994],[-69.1026011379999,-20.719411863999937],[-69.09727065299995,-20.71503322299992],[-69.09028215199993,-20.714167463999956],[-69.0878173609999,-20.711691698999914],[-69.08296530699994,-20.710065543999917],[-69.0775691529999,-20.703740670999935],[-69.0728364119999,-20.69564842999995],[-69.07060999999993,-20.687719999999956],[-69.06862140599992,-20.68634134699994],[-69.06454946199995,-20.685364664999952],[-69.06160472699992,-20.686574956999948],[-69.05731418099992,-20.68478274599994],[-69.05250705599991,-20.686407475999943],[-69.04918999999995,-20.684999999999945],[-69.04768974199993,-20.685691421999934],[-69.04748472199992,-20.68964388799992],[-69.04517791099994,-20.687950618999935],[-69.04343422699992,-20.688268670999946],[-69.03968275599993,-20.68285265599991],[-69.03730140599993,-20.682253266999908],[-69.03480988799993,-20.684840350999934],[-69.03204119599991,-20.68481773399992],[-69.02035258799992,-20.68051307299993],[-69.0181828819999,-20.67792324599992],[-69.01216029699992,-20.675638421999906],[-69.00578188399993,-20.677284208999936],[-69.0027706649999,-20.675821654999936],[-68.9990471829999,-20.676674875999936],[-68.99666105099993,-20.67845725099994],[-68.99086298999993,-20.67921482199995],[-68.98492838399994,-20.68269019999991],[-68.97807059999991,-20.684591516999944],[-68.97428032999994,-20.687817689999918],[-68.96756671499992,-20.688971373999948],[-68.96213549799995,-20.694840874999954],[-68.96424916899991,-20.705065301999923],[-68.96155713099995,-20.711513416999935],[-68.96126424699992,-20.72582581699993],[-68.95870569099992,-20.73033125899991],[-68.95935480299994,-20.73436849399991],[-68.95400845499995,-20.752375582999946],[-68.95413464499995,-20.75642038999996],[-68.9561089849999,-20.75833842599991],[-68.95913470399995,-20.759717390999924],[-68.96330493199991,-20.75934593799991],[-68.96220397899992,-20.76105857899995],[-68.95772718699993,-20.76300876299996],[-68.9556321419999,-20.771613475999914],[-68.9582351219999,-20.776009685999952],[-68.95718650899994,-20.78402420799995],[-68.96544999999992,-20.79248999999993],[-68.9630916719999,-20.800209749999908],[-68.96448751199995,-20.803660976999936],[-68.96313172799995,-20.811410141999943],[-68.95936991199994,-20.817349073999935],[-68.95669007499993,-20.825932809999927],[-68.95447000099995,-20.828260003999958],[-68.96656999999993,-20.912809999999922],[-68.96731999999992,-21.097399999999936],[-68.9005100039999,-21.172950000999947],[-68.86080999899991,-21.28511999999995],[-68.7580999839999,-21.21752005299993],[-68.5357599749999,-21.064680021999948],[-68.48076170999991,-20.945195034999927],[-68.48433955599995,-20.947072800999933],[-68.49311111299994,-20.945980256999917],[-68.49441029899992,-20.94353892999993],[-68.49907880099994,-20.941440245999956],[-68.50406139199993,-20.942967858999907],[-68.50497510499991,-20.94176861199992],[-68.50311912599994,-20.938927534999948],[-68.51365917399994,-20.93570064499994],[-68.51539387299994,-20.92802411699995],[-68.52043684299991,-20.925007687999937],[-68.52997484199994,-20.913252720999935],[-68.5340283239999,-20.909931422999932],[-68.54156645699993,-20.90781846199991],[-68.54301428899993,-20.90337319899993],[-68.53983896799991,-20.89980919599992],[-68.5417928089999,-20.89556770799993],[-68.54118098399994,-20.891028984999934],[-68.54947578499991,-20.88150638199994],[-68.55073910899995,-20.877919670999916],[-68.55324485199992,-20.87623825499992],[-68.55234214299992,-20.870907534999958],[-68.55568290699995,-20.86607247099994],[-68.55373937799993,-20.861125903999948],[-68.54906703499995,-20.855184794999957],[-68.54933965099991,-20.84904626599996],[-68.54741644099994,-20.84242380799992],[-68.55091773799995,-20.83602060499993],[-68.55591460599993,-20.833393680999905],[-68.5470635609999,-20.831167571999913],[-68.54536407599994,-20.821087107999915],[-68.54597391899995,-20.81801595199994],[-68.54073862099995,-20.807071812999936],[-68.5411301229999,-20.79488851499991],[-68.54576382599993,-20.782925311999918],[-68.5413772199999,-20.775282053999945],[-68.54757221599993,-20.767584927999906],[-68.55256908399991,-20.751466458999914],[-68.55318923199991,-20.74649979599991],[-68.55196142999995,-20.74137919599991],[-68.55417908699991,-20.73678207699993],[-68.55238021499991,-20.732327725999937],[-68.55316870899992,-20.729080488999955],[-68.55099863999993,-20.726553500999955],[-68.5492632509999,-20.72744511399992],[-68.54556543799993,-20.725113200999942],[-68.53176783599991,-20.72222764199995],[-68.52879826899994,-20.717587691999938],[-68.52758474399991,-20.71194836999996],[-68.52719927099992,-20.705338226999913],[-68.5288696529999,-20.702525703999925],[-68.52748480699995,-20.69917066499994],[-68.51920904799994,-20.69076225999993],[-68.51526873499995,-20.684682556999917],[-68.51136782499992,-20.68325372299995],[-68.50273513999991,-20.67679110699993],[-68.50352512099994,-20.673802502999933],[-68.50143192899992,-20.669208173999948],[-68.4940507309999,-20.669028890999925],[-68.4877975839999,-20.66620902099993],[-68.47716964799992,-20.66577499999994],[-68.46774283099995,-20.65787119299995],[-68.45996158199995,-20.655814075999956],[-68.45169367499994,-20.648374085999933],[-68.43899057399994,-20.64391525499991],[-68.43876862999991,-20.642107164999913],[-68.44172575999994,-20.635236198999905],[-68.4483470369999,-20.63545840899991],[-68.4514872609999,-20.633432567999932],[-68.45938827299995,-20.631621137999957],[-68.4593584079999,-20.626944055999957],[-68.4618270759999,-20.622524166999938],[-68.46538956299992,-20.62327027099991],[-68.46820499899991,-20.619904564999956],[-68.47492339699994,-20.618643685999928],[-68.47832914199995,-20.613953240999933],[-68.48193784199992,-20.612166911999907],[-68.4846902459999,-20.605423990999952],[-68.4873885689999,-20.605316856999934],[-68.49217088799992,-20.60784134499994],[-68.5024990519999,-20.60352533799994],[-68.50852313399992,-20.60627755999991],[-68.51569457699992,-20.60437531799994],[-68.51737923499991,-20.601334365999946],[-68.51702231599995,-20.598164923999946],[-68.51972300499995,-20.593053841999904],[-68.51850235599994,-20.591607402999955],[-68.5213363869999,-20.584902074999945],[-68.52379188299994,-20.583317087999944],[-68.52724797099995,-20.576536248999957],[-68.53270058499993,-20.573494672999914],[-68.53469933199995,-20.569625668999947],[-68.54090089499994,-20.572848348999912],[-68.54783395699991,-20.573237689999928],[-68.5517886209999,-20.57058221199992],[-68.5544439919999,-20.570349534999934],[-68.55666419899995,-20.571588861999942],[-68.56790708999995,-20.572795110999948],[-68.57050346299991,-20.575621086999945],[-68.57450822999994,-20.574234775999912],[-68.57759828799993,-20.571928859999957],[-68.57921691899992,-20.567925121999906],[-68.57854457299993,-20.56501632499993],[-68.58155811699993,-20.559536026999922],[-68.58627941599991,-20.558388657999956],[-68.58937193999992,-20.556196513999907],[-68.59314989799992,-20.54818201799992],[-68.59893045399991,-20.550680949999958],[-68.6047103059999,-20.545664992999946],[-68.60847499999994,-20.545624999999916],[-68.61103725999993,-20.54230793599993],[-68.61278322599992,-20.53699036699993],[-68.62133299999994,-20.532179881999923],[-68.64618659799993,-20.522683661999906],[-68.65036499399991,-20.52421737399993],[-68.65235416099995,-20.522169698999903],[-68.65845515899991,-20.52018846699991],[-68.6610915409999,-20.515331127999957],[-68.66493199199994,-20.514617288999943],[-68.66625367299991,-20.51656347799991],[-68.73874999999992,-20.45680555599995],[-68.74153502399992,-20.368338147999907],[-68.73664537199994,-20.37228290099995],[-68.73222381999994,-20.37369633299994],[-68.72744803899991,-20.368876177999937],[-68.72161796299991,-20.36685149899995],[-68.71552852899993,-20.365328280999904],[-68.71077777799991,-20.366424999999936],[-68.70573223499991,-20.365412458999913],[-68.6914486849999,-20.361615057999927],[-68.68879241899992,-20.35946161499993],[-68.67967360999995,-20.358782230999907],[-68.67433127599992,-20.356764047999945],[-68.66466420599994,-20.34656079599995],[-68.66095272599995,-20.33928854499993],[-68.6609384489999,-20.328309711999907],[-68.66232329499991,-20.32632524199994],[-68.66164094299995,-20.323179117999928],[-68.66251160599995,-20.32224181299995],[-68.66051014599992,-20.31904409099991],[-68.6641866839999,-20.31765461799995],[-68.66559267399992,-20.31508942699992],[-68.66907703299995,-20.313417795999953],[-68.66997580299994,-20.306038616999956],[-68.67783328399992,-20.302181832999906],[-68.68017340499995,-20.29510060599995],[-68.68716979399994,-20.293944118999946],[-68.69298994999991,-20.29531200699995],[-68.69747269299995,-20.289748165999924],[-68.69488859799992,-20.286221805999958],[-68.69504741799994,-20.279061078999916],[-68.69358941199994,-20.27517158899991],[-68.69580315699994,-20.271961033999958],[-68.69768684399992,-20.26173715199991],[-68.69715352499992,-20.25764687499992],[-68.70113302999994,-20.24881466499994],[-68.70847532099992,-20.252704717999904],[-68.71267268999992,-20.248907097999904],[-68.71277262699994,-20.245651994999946],[-68.71031702399995,-20.241840098999944],[-68.71262985999994,-20.236043731999928],[-68.71240143099993,-20.231289568999955],[-68.71498552599991,-20.226892324999938],[-68.70545836299993,-20.22008128199991],[-68.69889560999991,-20.21271549599993],[-68.69926680599991,-20.211002283999903],[-68.70432078099992,-20.21110222099992],[-68.70785593199992,-20.20979254899993],[-68.71113079899993,-20.20624812099993],[-68.71290859999993,-20.19739936399992],[-68.71272979699995,-20.194541172999948],[-68.70960683599992,-20.19159843299991],[-68.7103027469999,-20.18586089899992],[-68.70626546599993,-20.17868208899995],[-68.69805344299994,-20.176253295999913],[-68.6944698129999,-20.178065784999944],[-68.69181433499995,-20.17703785799995],[-68.69635147799994,-20.171055055999943],[-68.70098001799994,-20.161276307999913],[-68.70354983699991,-20.15904913199995],[-68.70006336599994,-20.14859658599994],[-68.70433149699994,-20.13374617699992],[-68.70535574299993,-20.132514570999945],[-68.71105713199995,-20.132638388999908],[-68.71907997599993,-20.136524622999957],[-68.72349444399993,-20.135294443999953],[-68.73131424199994,-20.13538650399994],[-68.73486975399993,-20.134322985999916],[-68.74086363999993,-20.12568711399996],[-68.74710824999994,-20.122971744999916],[-68.75497474699995,-20.125684329999956],[-68.76198057499994,-20.134338950999904],[-68.76575370599994,-20.131794785999944],[-68.77389363799995,-20.129667303999952],[-68.76212841699993,-20.07815391899993],[-68.69297777799994,-20.068263888999923],[-68.64043611099993,-20.04885833299994],[-68.56624999999991,-20.050077777999945],[-68.55130555599993,-20.02173055599991],[-68.52161819699995,-19.924269273999926],[-68.5422999999999,-19.890019443999904],[-68.52819530699992,-19.845521301999952],[-68.59934716899994,-19.827999992999935],[-68.62387000699994,-19.786700716999917],[-68.62703899999991,-19.78389556299993],[-68.63025619099994,-19.783674881999957],[-68.63577587799995,-19.780633142999932],[-68.63753109099991,-19.778497390999917],[-68.64095478799993,-19.77795614799993],[-68.64213772699992,-19.776037979999955],[-68.64803863899994,-19.772662234999927],[-68.81181999899991,-19.743619999999908],[-68.81575293799995,-19.733728990999907],[-68.8103597779999,-19.717954353999914],[-68.81702412499993,-19.710093910999944],[-68.82526663699991,-19.70642923899993],[-68.82896569499991,-19.702267294999956],[-68.82871705699995,-19.698710073999905],[-68.83373124899992,-19.69082261099993],[-68.83527365299994,-19.673535774999948],[-68.84146700499991,-19.660502398999938],[-68.84052690199991,-19.651836635999928],[-68.84525750899991,-19.64768492099995],[-68.8499926579999,-19.645581419999928],[-68.85500414799992,-19.638455163999936],[-68.8594366179999,-19.63913443599995],[-68.86594293499991,-19.63770633599995],[-68.86705832799993,-19.634642967999923],[-68.86916204199991,-19.63343281199991],[-68.87448407099993,-19.636524101999953],[-68.88101424599995,-19.635771226999907]]]}},{"type":"Feature","properties":{"cut":2103,"comuna":"SIERRA GORDA"},"geometry":{"type":"Polygon","coordinates":[[[-69.15100999099991,-22.663762195999936],[-69.1745201409999,-22.623140317999912],[-69.18202757499995,-22.621557759999916],[-69.1870010209999,-22.617696916999932],[-69.1903792029999,-22.61293210699995],[-69.19215728699993,-22.603205042999946],[-69.19149032799993,-22.58878778499991],[-69.19292989599995,-22.586197856999945],[-69.1903339449999,-22.58001274299994],[-69.19172995199995,-22.576542054999948],[-69.5334898829999,-22.880708709999908],[-69.83155999999991,-22.870609999999942],[-69.9700199589999,-22.871591507999938],[-69.97068295499992,-22.87696094899991],[-69.96644631399994,-22.884231426999918],[-69.96686017799993,-22.89750022399994],[-69.96907783599994,-22.901640485999906],[-69.9672123389999,-22.912062525999943],[-69.96851005499991,-22.917739539999957],[-69.97184276999991,-22.922733931999915],[-69.97726794099992,-22.925275196999905],[-69.9766683169999,-22.937496107999948],[-69.97912391999995,-22.945148454999924],[-69.97920005799995,-22.952941762999956],[-69.98357827099994,-22.959924907999948],[-69.9862051959999,-22.973744816999954],[-69.99224426799992,-22.982410813999934],[-69.9877328099999,-22.993318263999925],[-69.98780419399992,-22.99797248899995],[-69.99092467899993,-23.004527956999937],[-69.9942839229999,-23.006070466999915],[-69.99778027999992,-23.005796242999907],[-69.99949417999994,-23.007475864999947],[-70.0009338559999,-23.018513381999924],[-70.00326475999992,-23.022283961999904],[-70.00480125899992,-23.03100749899994],[-70.0092921609999,-23.03647542199991],[-70.00601790999991,-23.04112964099994],[-70.00557012399992,-23.045928706999916],[-70.00657948699995,-23.048035871999957],[-70.01000430999994,-23.049901806999912],[-70.01067722099992,-23.055731873999946],[-70.01375988399991,-23.057921122999915],[-69.96970002499995,-23.32932055799995],[-70.0476302049999,-23.623329991999924],[-69.60049977299991,-23.626010185999917],[-69.43079183499992,-23.603090970999915],[-69.35106001499992,-23.662549863999914],[-69.14168978599992,-23.665310546999933],[-69.0796818259999,-23.68928053199994],[-68.87397979499991,-23.875070274999928],[-68.69854999899991,-23.923129999999958],[-68.69608000099993,-23.905889999999943],[-68.69065999999992,-23.894249999999943],[-68.6868699979999,-23.880759999999952],[-68.6874807179999,-23.874049468999942],[-68.68397999899992,-23.86074999999994],[-68.68867999899993,-23.855149998999934],[-68.6928202279999,-23.84670946199992],[-68.69292016599991,-23.839142775999903],[-68.68979355399995,-23.827864130999956],[-68.69061037499995,-23.821068113999956],[-68.6885099989999,-23.80860999899994],[-68.69012999899991,-23.80502999899994],[-68.6895299979999,-23.79421999899995],[-68.68761999799995,-23.79135999899995],[-68.6862198039999,-23.78608223799995],[-68.68699530799995,-23.782706719999908],[-68.6856499989999,-23.77735999999993],[-68.68385999799995,-23.77520999999996],[-68.68123999799991,-23.763400000999923],[-68.6801799989999,-23.760179998999945],[-68.67859999899991,-23.759469999999908],[-68.67461735299992,-23.747971347999908],[-68.67732999999993,-23.741589998999928],[-68.67921999799995,-23.740479999999934],[-68.6791202579999,-23.737531685999954],[-68.67687029899992,-23.73499787299994],[-68.67728807399993,-23.732320666999954],[-68.66987028799991,-23.71534066499993],[-68.66895999899992,-23.708429999999908],[-68.6651052329999,-23.69955548899992],[-68.6694834409999,-23.687824745999933],[-68.67703972099991,-23.68411797999994],[-68.67793052899992,-23.681638146999944],[-68.67346000099991,-23.657329998999955],[-68.67446999799995,-23.655089998999927],[-68.67981030199991,-23.65094309999995],[-68.68052414099992,-23.64380471699991],[-68.68631999999991,-23.64080999999993],[-68.6869202389999,-23.63455835299993],[-68.68563998099995,-23.629980048999926],[-68.68777999999992,-23.62295999899993],[-68.68871999799995,-23.612209999999948],[-68.68592999999993,-23.605819999999937],[-68.68547341899995,-23.598571163999907],[-68.69077961799991,-23.591742110999917],[-68.69416999999993,-23.582859999999926],[-68.70793553199991,-23.56997004199991],[-68.70867316399995,-23.56723366199992],[-68.70703133699993,-23.557382693999955],[-68.70482999899991,-23.55445999999995],[-68.70533999899993,-23.538769998999953],[-68.70262933299995,-23.53453986799991],[-68.6943250139999,-23.53246973699993],[-68.69394430099993,-23.529899918999945],[-68.69732313599991,-23.518502300999955],[-68.7017251389999,-23.512149139999906],[-68.7025103599999,-23.507889904999956],[-68.7015602699999,-23.505302069999914],[-68.69803006399991,-23.503362250999942],[-68.6977990279999,-23.500929980999956],[-68.6982749199999,-23.49185828599991],[-68.70291486899993,-23.46865854099991],[-68.70236999999992,-23.46419999999995],[-68.69887999999992,-23.456139999999948],[-68.69914999999992,-23.45375999999993],[-68.70650999999992,-23.44723999999991],[-68.70723999899991,-23.444059999999922],[-68.70504999999991,-23.440339999999935],[-68.7045399989999,-23.42790999999994],[-68.70456999999993,-23.41751999999991],[-68.70701943899991,-23.401855173999934],[-68.70993427899992,-23.397720859999936],[-68.7137702409999,-23.39665074599992],[-68.7178757289999,-23.38716200199991],[-68.7162993359999,-23.383087174999957],[-68.7094002899999,-23.379091715999948],[-68.70249846299993,-23.36848323299995],[-68.70152999899994,-23.365599999999915],[-68.70229026099992,-23.357329509999943],[-68.70029746199992,-23.347603462999928],[-68.68914373899992,-23.33070928999996],[-68.68750785799995,-23.32065606699996],[-68.69051192899991,-23.31577817199991],[-68.69098782099991,-23.312327952999908],[-68.68744837199995,-23.284934407999913],[-68.6824998749999,-23.282630513999948],[-68.68230278699991,-23.275297590999912],[-68.6764199989999,-23.266739999999913],[-68.67598896299995,-23.263268551999943],[-68.67029071899992,-23.255610909999916],[-68.6477176699999,-23.23283792299992],[-68.64757771299992,-23.227119683999945],[-68.65027688099991,-23.222561087999907],[-68.64733778699991,-23.213863765999918],[-68.6458382479999,-23.210704738999937],[-68.63338208399995,-23.200847774999943],[-68.62886347699992,-23.194889609999905],[-68.6270240419999,-23.189451284999905],[-68.62108587199992,-23.184172909999916],[-68.61920645099991,-23.175575557999935],[-68.6198862409999,-23.172796413999947],[-68.63276227499995,-23.156761351999933],[-68.63990007799993,-23.14616461499992],[-68.64421874699991,-23.13680749699995],[-68.6466180079999,-23.136047730999906],[-68.64935716499991,-23.132368863999943],[-68.65661492899994,-23.126810574999922],[-68.6588142519999,-23.120132631999923],[-68.65673999899991,-23.112789999999904],[-68.66256495099992,-23.106123392999905],[-68.67129999999992,-23.10480999999993],[-68.67712826099995,-23.10061025999994],[-68.68555155399991,-23.10056267099992],[-68.7042636349999,-23.10696817999991],[-68.70853714599991,-23.110680138999953],[-68.71381003199991,-23.110289907999913],[-68.72682992999995,-23.112588124999945],[-68.7312609999999,-23.11182465999991],[-68.73425450899992,-23.11721227599992],[-68.74038020499995,-23.119842116999905],[-68.74080972999991,-23.125348583999937],[-68.75019236499992,-23.12547872899995],[-68.75572461099995,-23.12717409499993],[-68.75953681699991,-23.131285987999945],[-68.76087369099992,-23.138528160999954],[-68.7698772729999,-23.14123955699995],[-68.77920989199993,-23.138690685999904],[-68.80745623599995,-23.124420374999943],[-68.82413406499995,-23.121385723999936],[-68.83757323299994,-23.10725802199994],[-68.84518334899991,-23.104727054999955],[-68.8463526139999,-23.10011753899994],[-68.84458608199992,-23.09652198799995],[-68.84338752199994,-23.08718852399994],[-68.8385167799999,-23.086933511999916],[-68.83375083699991,-23.08289997499992],[-68.83428356999991,-23.07777855699993],[-68.83322399899993,-23.074128439999924],[-68.83033087399991,-23.07188776399994],[-68.83022886799995,-23.068521595999925],[-68.8268395899999,-23.062404944999912],[-68.82459308799992,-23.049319141999945],[-68.83216989199991,-23.043639372999905],[-68.83283858099992,-23.038591520999944],[-68.82838085199995,-23.030839528999934],[-68.82484593999993,-23.028202423999915],[-68.82332450799993,-23.020097781999937],[-68.8143407359999,-23.007176216999937],[-68.80320081499991,-23.001764109999954],[-68.8017799989999,-22.999169999999935],[-68.80401263099992,-22.99711871799991],[-68.80874822499993,-22.978807754999934],[-68.81258180099991,-22.97123080399996],[-68.81538882799993,-22.96707157399993],[-68.8245997109999,-22.959542642999907],[-68.82515258599994,-22.95578309499996],[-68.8292438599999,-22.951949829999933],[-68.83071819199995,-22.950880937999955],[-68.83694724799994,-22.95065978799994],[-68.84321316299992,-22.94667908999992],[-68.8646479219999,-22.927480687999946],[-68.8668108999999,-22.923534203999907],[-68.86908771599991,-22.912909054999943],[-68.8673801029999,-22.909038465999913],[-68.86840467099995,-22.905243769999913],[-68.9864600439999,-22.74506004199992],[-69.15100999099991,-22.663762195999936]]]}},{"type":"Feature","properties":{"cut":2201,"comuna":"CALAMA"},"geometry":{"type":"Polygon","coordinates":[[[-68.0712969299999,-21.98166116999994],[-68.07284999699993,-21.978505711999958],[-68.1175740409999,-21.950311903999932],[-68.19380000899992,-21.906620019999934],[-68.3429400089999,-21.883760022999923],[-68.31956762699991,-21.780270266999935],[-68.31161968799995,-21.69260927499994],[-68.39283954599995,-21.648610299999916],[-68.44692990099992,-21.608859854999935],[-68.52265001199993,-21.54650999799992],[-68.50135999999992,-21.406789999999944],[-68.51459015099994,-21.278280018999908],[-68.46832052399992,-21.22090881899993],[-68.53576023399995,-21.06468019999994],[-68.7580999839999,-21.21752005299993],[-68.86080999899991,-21.28511999999995],[-68.93596996899993,-21.43571042399992],[-68.99317998799995,-21.635930741999914],[-68.9312697599999,-21.827240065999945],[-69.17485337599993,-22.22660317099991],[-69.16451008999991,-22.34118150799992],[-69.14611014699994,-22.451898575999905],[-69.19172995199995,-22.576542054999948],[-69.1903339449999,-22.58001274299994],[-69.19292989599995,-22.586197856999945],[-69.19149032799993,-22.58878778499991],[-69.19215728699993,-22.603205042999946],[-69.1903792029999,-22.61293210699995],[-69.1870010209999,-22.617696916999932],[-69.18202757499995,-22.621557759999916],[-69.1745201409999,-22.623140317999912],[-69.15100999099991,-22.663762195999936],[-68.9864600439999,-22.74506004199992],[-68.86840467099995,-22.905243769999913],[-68.8673801029999,-22.909038465999913],[-68.86908771599991,-22.912909054999943],[-68.8668108999999,-22.923534203999907],[-68.8646479219999,-22.927480687999946],[-68.84321316299992,-22.94667908999992],[-68.83694724799994,-22.95065978799994],[-68.83071819199995,-22.950880937999955],[-68.8292438599999,-22.951949829999933],[-68.82515258599994,-22.95578309499996],[-68.8245997109999,-22.959542642999907],[-68.81538882799993,-22.96707157399993],[-68.8094698399999,-22.97677821399992],[-68.80401263099992,-22.99711871799991],[-68.8017799989999,-22.999169999999935],[-68.80320081499991,-23.001764109999954],[-68.8143407359999,-23.007176216999937],[-68.82332450799993,-23.020097781999937],[-68.82484593999993,-23.028202423999915],[-68.82838085199995,-23.030839528999934],[-68.83283858099992,-23.038591520999944],[-68.83216989199991,-23.043639372999905],[-68.82459308799992,-23.049319141999945],[-68.82725746099993,-23.06437918799992],[-68.83022886799995,-23.068521595999925],[-68.83033087399991,-23.07188776399994],[-68.83322399899993,-23.074128439999924],[-68.83428356999991,-23.07777855699993],[-68.83375083699991,-23.08289997499992],[-68.8385167799999,-23.086933511999916],[-68.84338752199994,-23.08718852399994],[-68.84458608199992,-23.09652198799995],[-68.8463526139999,-23.10011753899994],[-68.84518334899991,-23.104727054999955],[-68.83757323299994,-23.10725802199994],[-68.82528162299991,-23.12067168899995],[-68.80745623599995,-23.124420374999943],[-68.77920989199993,-23.138690685999904],[-68.76761202499995,-23.14097305699994],[-68.76087369099992,-23.138528160999954],[-68.75953681699991,-23.131285987999945],[-68.75572461099995,-23.12717409499993],[-68.75019236499992,-23.12547872899995],[-68.74080972999991,-23.125348583999937],[-68.74038020499995,-23.119842116999905],[-68.73425450899992,-23.11721227599992],[-68.7312609999999,-23.11182465999991],[-68.72682992999995,-23.112588124999945],[-68.71381003199991,-23.110289907999913],[-68.70853714599991,-23.110680138999953],[-68.7042636349999,-23.10696817999991],[-68.68555155399991,-23.10056267099992],[-68.67712826099995,-23.10061025999994],[-68.67129999999992,-23.10480999999993],[-68.66418399399993,-23.105202619999943],[-68.6613100639999,-23.107699917999923],[-68.66069411799992,-23.105997756999955],[-68.65152109999991,-23.10290786799993],[-68.65142694699995,-23.097698091999916],[-68.64870007799993,-23.095387862999928],[-68.64706454499992,-23.09029142299994],[-68.64296999999993,-23.08826999999991],[-68.63510999999994,-23.08119999999991],[-68.61863999999991,-23.082719999999938],[-68.59720010899991,-23.088359969999942],[-68.54827999999992,-23.08627999999993],[-68.54181999999992,-23.084349999999915],[-68.5387199999999,-23.080599999999947],[-68.53799999999995,-23.07340999999991],[-68.53955999999994,-23.069319999999948],[-68.5426799999999,-23.066299999999956],[-68.54358999999994,-23.060419999999908],[-68.54250999999994,-23.058629999999937],[-68.53493999999995,-23.054049999999904],[-68.53062999999992,-23.04788999999994],[-68.53208999999993,-23.039729999999906],[-68.52596999999992,-23.023099999999943],[-68.53478999999993,-23.011399999999924],[-68.53724999999991,-22.989879999999914],[-68.53457999999995,-22.976119999999923],[-68.52424999999994,-22.961449999999957],[-68.52510999999993,-22.956429999999955],[-68.52380999999991,-22.94918999999993],[-68.52632999999992,-22.934369999999944],[-68.52444999999994,-22.923229999999933],[-68.52593999999993,-22.91450999999995],[-68.52542999999991,-22.906589999999937],[-68.52095999999995,-22.89593999999994],[-68.51098999999994,-22.886909999999943],[-68.50797999999992,-22.881369999999947],[-68.50729999999993,-22.87215999999995],[-68.50497999999993,-22.86752999999993],[-68.50056999999993,-22.864999999999952],[-68.49799999999993,-22.860349999999926],[-68.49088774899991,-22.854039385999954],[-68.48989006499994,-22.849330064999947],[-68.49432000199994,-22.83742000399991],[-68.49183999999991,-22.82985999999994],[-68.48148999999995,-22.819749999999942],[-68.4800699999999,-22.81615999999991],[-68.48097860199994,-22.813462889999926],[-68.46045023399995,-22.802960066999958],[-68.4598154599999,-22.78943662699993],[-68.45150999999993,-22.780369999999948],[-68.44978000999993,-22.76918993299995],[-68.44390990099993,-22.765850120999914],[-68.43868999999995,-22.753699999999924],[-68.43402999999995,-22.74989999999991],[-68.4287799999999,-22.748399999999947],[-68.41780999999992,-22.747879999999952],[-68.40741011299991,-22.74992997299995],[-68.40471999999994,-22.74860999999993],[-68.39893999999993,-22.737349999999935],[-68.38753999999994,-22.726539999999943],[-68.37435999999991,-22.695059999999955],[-68.36292698599993,-22.67760916599991],[-68.3585200469999,-22.678025671999933],[-68.34371243699991,-22.685019756999907],[-68.33445037799993,-22.68798328999992],[-68.32813558099991,-22.685240130999944],[-68.31842999999992,-22.67691999999994],[-68.30656999999991,-22.676069999999925],[-68.30578999999994,-22.674169999999947],[-68.30674999999991,-22.671769999999924],[-68.30378999999994,-22.666579999999954],[-68.30139999999994,-22.656869999999913],[-68.30436743399991,-22.652096526999912],[-68.30306834799995,-22.650316451999913],[-68.30215691699993,-22.642969683999922],[-68.30907999999994,-22.63098999999994],[-68.30756999999994,-22.623069999999927],[-68.30443999999994,-22.619949999999903],[-68.29058999999995,-22.614469999999926],[-68.28780999999992,-22.609119999999905],[-68.27805311599991,-22.601212623999913],[-68.2720274859999,-22.601459381999916],[-68.26962251399993,-22.599702952999905],[-68.2657176269999,-22.600741184999947],[-68.26300224999994,-22.598453397999947],[-68.26092999999992,-22.592869999999948],[-68.26175999999992,-22.58555999999993],[-68.26389999999992,-22.579959999999915],[-68.26726999999994,-22.576599999999928],[-68.26743999999991,-22.574329999999918],[-68.26394999999991,-22.56794999999994],[-68.25982999999991,-22.566649999999925],[-68.25984999999991,-22.56287999999995],[-68.25796999999994,-22.560709999999915],[-68.26045999999991,-22.55580999999995],[-68.26045806099995,-22.54547171799993],[-68.25697217599992,-22.54380326799992],[-68.25423999999992,-22.539749999999913],[-68.25018962399992,-22.538742463999938],[-68.25097999999991,-22.53619999999995],[-68.25628999999992,-22.53281999999996],[-68.25096999999994,-22.53075999999993],[-68.25113875699992,-22.523739210999906],[-68.24531999999994,-22.521369999999933],[-68.24349574699994,-22.515006263999908],[-68.23871999999994,-22.515979999999956],[-68.2374099999999,-22.521159999999952],[-68.23545272799993,-22.52147440899995],[-68.22968999999995,-22.510869999999954],[-68.22715541699995,-22.497802676999925],[-68.22020189699992,-22.493467091999946],[-68.19986154799994,-22.458449884999936],[-68.17527999999993,-22.446039999999925],[-68.16979999999995,-22.444429999999954],[-68.16426999999993,-22.44766999999996],[-68.15548999999993,-22.457209999999918],[-68.15030341199991,-22.459071916999903],[-68.14176999999995,-22.45995999999991],[-68.13079181299992,-22.457415277999928],[-68.12425999999994,-22.459269999999947],[-68.11907948599992,-22.461719995999943],[-68.11793908699991,-22.463984410999956],[-68.11835999999994,-22.473229999999944],[-68.11641999999995,-22.49240999999995],[-68.11380999999994,-22.492539999999906],[-68.10806999999994,-22.489129999999932],[-68.10172967299991,-22.488013949999925],[-68.09882926499995,-22.490604369999915],[-68.0993336919999,-22.493331869999906],[-68.09628999999995,-22.493319999999926],[-68.09147999999993,-22.490799999999922],[-68.08802999999995,-22.48636999999991],[-68.0834822569999,-22.455564066999955],[-68.08274937599992,-22.427148820999946],[-68.07679800499994,-22.432331895999937],[-68.07468999999992,-22.431859999999915],[-68.0721299999999,-22.425229999999942],[-68.06772999999993,-22.42142999999993],[-68.0629199999999,-22.42032999999992],[-68.04721343999995,-22.42127884699994],[-68.0290599999999,-22.418329999999912],[-68.02541999999994,-22.418969999999945],[-68.01739999999995,-22.425499999999943],[-68.01455260699993,-22.428931935999913],[-68.01552061299992,-22.432340853999904],[-68.01377502499992,-22.432341355999938],[-68.0074699999999,-22.42825999999991],[-68.00166007299993,-22.420882569999947],[-67.98629690299992,-22.411484456999915],[-67.9838299999999,-22.410589999999956],[-67.97651999999994,-22.411869999999908],[-67.97096999999991,-22.41100999999992],[-67.96839442399994,-22.40880464399993],[-67.96724999999992,-22.40396999999996],[-67.9688099999999,-22.397689999999955],[-67.96850999999992,-22.392919999999947],[-67.96230577799992,-22.39395818299994],[-67.95405999999991,-22.391559999999913],[-67.94302058399995,-22.381532612999933],[-67.93701585399992,-22.379017234999935],[-67.9330564039999,-22.375098430999913],[-67.93216636199992,-22.373316235999937],[-67.93326359199995,-22.37096215699995],[-67.93256262199992,-22.36500678999994],[-67.94086114099991,-22.35864416399994],[-67.93448874899991,-22.35043535299991],[-67.93098985699993,-22.34295549199993],[-67.93505629599991,-22.33931122699994],[-67.94185052599994,-22.336392129999922],[-67.94174114399993,-22.331821713999943],[-67.94024639999992,-22.32972785699991],[-67.94310518499992,-22.328083074999938],[-67.93840162499993,-22.322103075999905],[-67.9403760049999,-22.318008079999913],[-67.93939167499991,-22.312634853999953],[-67.94024165299993,-22.311305597999933],[-67.9366427459999,-22.310326034999946],[-67.93222620299991,-22.304733067999905],[-67.93425727499994,-22.298379420999936],[-67.93869858199992,-22.29367137199995],[-67.9328313229999,-22.288637896999944],[-67.93430001999991,-22.284613192999927],[-67.93246859299995,-22.280939647999958],[-67.93727395499991,-22.273230978999948],[-67.93211052499993,-22.27220781099993],[-67.9304225329999,-22.27443488499995],[-67.92560202899995,-22.27281587199991],[-67.92439886499994,-22.27501650399995],[-67.9212218319999,-22.275416071999928],[-67.91543050299993,-22.27239816799994],[-67.91704291999991,-22.268524133999904],[-67.92074221699994,-22.268309754999905],[-67.92302506999994,-22.266623213999935],[-67.92452148299992,-22.26166188399992],[-67.92297033299991,-22.25632663999994],[-67.92441420199992,-22.24736134999995],[-67.92110099299992,-22.24108165699994],[-67.92600757299994,-22.237318776999928],[-67.92898987799992,-22.229996267999923],[-67.9288108099999,-22.226534319999928],[-67.93293721299995,-22.222651338999924],[-67.93253863299992,-22.21669866399992],[-67.93533033499995,-22.214397478999956],[-67.93275834699995,-22.20829080799996],[-67.93400057399992,-22.20470617999996],[-67.93196908499993,-22.202692932999923],[-67.93346812399994,-22.201316533999943],[-67.93599317299993,-22.201380855999957],[-67.9356224149999,-22.19950562999992],[-67.94044259199995,-22.196734937999906],[-67.9412036789999,-22.190558856999928],[-67.93939542999993,-22.188535029999912],[-67.94909968199994,-22.181025783999928],[-67.9504948739999,-22.178530435999903],[-67.94966961199992,-22.17631670299994],[-67.95561685599995,-22.176967632999947],[-67.9551031869999,-22.17305334699995],[-67.95763884699994,-22.166042787999913],[-67.95749741599991,-22.151806630999943],[-67.95463023799994,-22.15093741399994],[-67.95333334599991,-22.148672870999917],[-67.9490692249999,-22.14787322999996],[-67.94666699699991,-22.137052470999947],[-67.94121726599991,-22.13028677299991],[-67.9423001259999,-22.12406049099991],[-67.9392334069999,-22.107434377999937],[-67.94511805999991,-22.09836150399991],[-67.94811129599992,-22.095914234999952],[-67.94857176799991,-22.08776223299992],[-67.9574148879999,-22.08489340099993],[-67.96259788799995,-22.081760381999914],[-67.96378571499991,-22.079704527999922],[-67.96400477499992,-22.07446667399995],[-67.96592919799991,-22.07359929599994],[-67.96760261399993,-22.066334402999928],[-67.96614423699992,-22.061647273999938],[-67.9666780519999,-22.05806837399996],[-67.96460585699992,-22.053906058999928],[-67.97093894599993,-22.05459610799994],[-67.9755280139999,-22.052903786999934],[-67.98869547499993,-22.042545869999913],[-67.99765648499994,-22.041358104999915],[-68.0007818389999,-22.03945113599991],[-68.00738169599992,-22.039565360999916],[-68.0105227759999,-22.03312725199993],[-68.01383763099994,-22.030105398999922],[-68.01331550099991,-22.025935182999945],[-68.0145972219999,-22.02404166699995],[-68.0712969299999,-21.98166116999994]]]}},{"type":"Feature","properties":{"cut":2202,"comuna":"OLLAGÜE"},"geometry":{"type":"Polygon","coordinates":[[[-68.41249021499993,-20.934544566999932],[-68.41268872199993,-20.938646030999905],[-68.4151107429999,-20.940984974999935],[-68.41951438399991,-20.94146879899995],[-68.42782346199994,-20.946108747999915],[-68.43189233999993,-20.945309248999934],[-68.4404441229999,-20.946294346999935],[-68.44552665099991,-20.944709624999916],[-68.4493385479999,-20.946437113999934],[-68.46016033699993,-20.94396723299991],[-68.46168795099993,-20.945780381999953],[-68.4697400469999,-20.945052267999927],[-68.47452841799992,-20.946338889999936],[-68.47838119399995,-20.940830777999906],[-68.48082315999994,-20.94127866699995],[-68.4807819799999,-20.94530279199995],[-68.53576023399995,-21.06468019999994],[-68.46832052399992,-21.22090881899993],[-68.51459015099994,-21.278280018999908],[-68.50135999999992,-21.406789999999944],[-68.52265001199993,-21.54650999799992],[-68.44692990099992,-21.608859854999935],[-68.39283954599995,-21.648610299999916],[-68.31161968799995,-21.69260927499994],[-68.31956762699991,-21.780270266999935],[-68.3429400089999,-21.883760022999923],[-68.19380000899992,-21.906620019999934],[-68.1175740409999,-21.950311903999932],[-68.07284999699993,-21.978505711999958],[-68.0712969299999,-21.98166116999994],[-68.06276388899994,-21.852605555999958],[-68.0616951959999,-21.792487769999923],[-68.05962986599991,-21.785812075999957],[-68.06065651799992,-21.782213447999936],[-68.0596836819999,-21.779129300999955],[-68.06097867599993,-21.77675599199995],[-68.06056695199993,-21.770032320999917],[-68.06780363899992,-21.763587660999917],[-68.0720607959999,-21.762105745999918],[-68.07169921899992,-21.75400385899991],[-68.07642530599992,-21.751223483999922],[-68.08378688099992,-21.750158649999946],[-68.0899907459999,-21.740705028999912],[-68.0928972879999,-21.738523895999947],[-68.09345878999994,-21.734365968999953],[-68.09708037999991,-21.72860154299991],[-68.09578119399993,-21.72527505599993],[-68.09905551399993,-21.721364795999932],[-68.10015642199994,-21.716525163999904],[-68.10588696899993,-21.708723810999913],[-68.11537977599994,-21.68950909399996],[-68.11782452099993,-21.67829021999995],[-68.1379305559999,-21.65702222199991],[-68.18065004399995,-21.604008628999907],[-68.1791134149999,-21.301934350999943],[-68.29500833299994,-21.09786666699995],[-68.41249021499993,-20.934544566999932]]]}},{"type":"Feature","properties":{"cut":2203,"comuna":"SAN PEDRO DE ATACAMA"},"geometry":{"type":"Polygon","coordinates":[[[-67.9430189489999,-22.381749044999935],[-67.9556399999999,-22.39232999999996],[-67.96230577799992,-22.39395818299994],[-67.96850999999992,-22.392919999999947],[-67.9688099999999,-22.397689999999955],[-67.96724999999992,-22.40396999999996],[-67.96839442399994,-22.40880464399993],[-67.97096999999991,-22.41100999999992],[-67.97651999999994,-22.411869999999908],[-67.9838299999999,-22.410589999999956],[-67.98629690299992,-22.411484456999915],[-68.00166007299993,-22.420882569999947],[-68.0074699999999,-22.42825999999991],[-68.01377502499992,-22.432341355999938],[-68.01552061299992,-22.432340853999904],[-68.01455260699993,-22.428931935999913],[-68.01739999999995,-22.425499999999943],[-68.02541999999994,-22.418969999999945],[-68.0290599999999,-22.418329999999912],[-68.04721343999995,-22.42127884699994],[-68.0629199999999,-22.42032999999992],[-68.06772999999993,-22.42142999999993],[-68.0721299999999,-22.425229999999942],[-68.07468999999992,-22.431859999999915],[-68.07679800499994,-22.432331895999937],[-68.08274937599992,-22.427148820999946],[-68.0834822569999,-22.455564066999955],[-68.08802999999995,-22.48636999999991],[-68.09147999999993,-22.490799999999922],[-68.09628999999995,-22.493319999999926],[-68.0993336919999,-22.493331869999906],[-68.09882926499995,-22.490604369999915],[-68.10172967299991,-22.488013949999925],[-68.10806999999994,-22.489129999999932],[-68.11380999999994,-22.492539999999906],[-68.11641999999995,-22.49240999999995],[-68.11835999999994,-22.473229999999944],[-68.11793908699991,-22.463984410999956],[-68.11907948599992,-22.461719995999943],[-68.12425999999994,-22.459269999999947],[-68.13079181299992,-22.457415277999928],[-68.14176999999995,-22.45995999999991],[-68.15030341199991,-22.459071916999903],[-68.15548999999993,-22.457209999999918],[-68.16426999999993,-22.44766999999996],[-68.16979999999995,-22.444429999999954],[-68.17527999999993,-22.446039999999925],[-68.19986154799994,-22.458449884999936],[-68.22020189699992,-22.493467091999946],[-68.22715541699995,-22.497802676999925],[-68.22968999999995,-22.510869999999954],[-68.23545272799993,-22.52147440899995],[-68.2374099999999,-22.521159999999952],[-68.23871999999994,-22.515979999999956],[-68.24349574699994,-22.515006263999908],[-68.24531999999994,-22.521369999999933],[-68.25113875699992,-22.523739210999906],[-68.25096999999994,-22.53075999999993],[-68.25628999999992,-22.53281999999996],[-68.25097999999991,-22.53619999999995],[-68.25018962399992,-22.538742463999938],[-68.25423999999992,-22.539749999999913],[-68.25697217599992,-22.54380326799992],[-68.26045806099995,-22.54547171799993],[-68.26045999999991,-22.55580999999995],[-68.25796999999994,-22.560709999999915],[-68.25984999999991,-22.56287999999995],[-68.25982999999991,-22.566649999999925],[-68.26394999999991,-22.56794999999994],[-68.26743999999991,-22.574329999999918],[-68.26726999999994,-22.576599999999928],[-68.26389999999992,-22.579959999999915],[-68.26175999999992,-22.58555999999993],[-68.26092999999992,-22.592869999999948],[-68.26300224999994,-22.598453397999947],[-68.2657176269999,-22.600741184999947],[-68.26962251399993,-22.599702952999905],[-68.2720274859999,-22.601459381999916],[-68.27805311599991,-22.601212623999913],[-68.28780999999992,-22.609119999999905],[-68.29058999999995,-22.614469999999926],[-68.30443999999994,-22.619949999999903],[-68.30756999999994,-22.623069999999927],[-68.30907999999994,-22.63098999999994],[-68.30215691699993,-22.642969683999922],[-68.30306834799995,-22.650316451999913],[-68.30436743399991,-22.652096526999912],[-68.30139999999994,-22.656869999999913],[-68.30378999999994,-22.666579999999954],[-68.30674999999991,-22.671769999999924],[-68.30578999999994,-22.674169999999947],[-68.30656999999991,-22.676069999999925],[-68.31842999999992,-22.67691999999994],[-68.32813558099991,-22.685240130999944],[-68.33445037799993,-22.68798328999992],[-68.34371243699991,-22.685019756999907],[-68.3585200469999,-22.678025671999933],[-68.36292698599993,-22.67760916599991],[-68.37435999999991,-22.695059999999955],[-68.38753999999994,-22.726539999999943],[-68.39893999999993,-22.737349999999935],[-68.40471999999994,-22.74860999999993],[-68.40741011299991,-22.74992997299995],[-68.41780999999992,-22.747879999999952],[-68.4287799999999,-22.748399999999947],[-68.43402999999995,-22.74989999999991],[-68.43868999999995,-22.753699999999924],[-68.44390990099993,-22.765850120999914],[-68.44978000999993,-22.76918993299995],[-68.45150999999993,-22.780369999999948],[-68.4598154599999,-22.78943662699993],[-68.46045023399995,-22.802960066999958],[-68.48097860199994,-22.813462889999926],[-68.4800699999999,-22.81615999999991],[-68.48148999999995,-22.819749999999942],[-68.49183999999991,-22.82985999999994],[-68.49432000199994,-22.83742000399991],[-68.48989006499994,-22.849330064999947],[-68.49088774899991,-22.854039385999954],[-68.49799999999993,-22.860349999999926],[-68.50056999999993,-22.864999999999952],[-68.50497999999993,-22.86752999999993],[-68.50729999999993,-22.87215999999995],[-68.50797999999992,-22.881369999999947],[-68.51098999999994,-22.886909999999943],[-68.52095999999995,-22.89593999999994],[-68.52455999999995,-22.902829999999938],[-68.52593999999993,-22.91450999999995],[-68.52444999999994,-22.923229999999933],[-68.52632999999992,-22.934369999999944],[-68.52380999999991,-22.94918999999993],[-68.52510999999993,-22.956429999999955],[-68.52424999999994,-22.961449999999957],[-68.53457999999995,-22.976119999999923],[-68.53724999999991,-22.989879999999914],[-68.53478999999993,-23.011399999999924],[-68.52596999999992,-23.023099999999943],[-68.53208999999993,-23.039729999999906],[-68.53062999999992,-23.04788999999994],[-68.53493999999995,-23.054049999999904],[-68.54250999999994,-23.058629999999937],[-68.54358999999994,-23.060419999999908],[-68.5426799999999,-23.066299999999956],[-68.53955999999994,-23.069319999999948],[-68.53799999999995,-23.07340999999991],[-68.5387199999999,-23.080599999999947],[-68.54181999999992,-23.084349999999915],[-68.54827999999992,-23.08627999999993],[-68.58555999999993,-23.088379999999916],[-68.59720010899991,-23.088359969999942],[-68.61863999999991,-23.082719999999938],[-68.63510999999994,-23.08119999999991],[-68.64296999999993,-23.08826999999991],[-68.64706454499992,-23.09029142299994],[-68.64870007799993,-23.095387862999928],[-68.65142694699995,-23.097698091999916],[-68.65152109999991,-23.10290786799993],[-68.66130088099993,-23.106449853999948],[-68.65673999899991,-23.112789999999904],[-68.6588142519999,-23.120132631999923],[-68.65661492899994,-23.126810574999922],[-68.64935716499991,-23.132368863999943],[-68.6466180079999,-23.136047730999906],[-68.64421874699991,-23.13680749699995],[-68.63990007799993,-23.14616461499992],[-68.63276227499995,-23.156761351999933],[-68.62056603099995,-23.171276881999916],[-68.61920645099991,-23.175575557999935],[-68.62108587199992,-23.184172909999916],[-68.6270240419999,-23.189451284999905],[-68.63098282299995,-23.197948667999924],[-68.6363700089999,-23.20370806099993],[-68.6458382479999,-23.210704738999937],[-68.65027688099991,-23.222561087999907],[-68.64757771299992,-23.227119683999945],[-68.6477176699999,-23.23283792299992],[-68.67029071899992,-23.255610909999916],[-68.67598896299995,-23.263268551999943],[-68.6764199989999,-23.266739999999913],[-68.68230278699991,-23.275297590999912],[-68.6824998749999,-23.282630513999948],[-68.68744837199995,-23.284934407999913],[-68.69098782099991,-23.312327952999908],[-68.69051192899991,-23.31577817199991],[-68.68750785799995,-23.32065606699996],[-68.68914373899992,-23.33070928999996],[-68.70029746199992,-23.347603462999928],[-68.70229026099992,-23.357329509999943],[-68.70152999899994,-23.365599999999915],[-68.70249846299993,-23.36848323299995],[-68.7094002899999,-23.379091715999948],[-68.7162993359999,-23.383087174999957],[-68.7178757289999,-23.38716200199991],[-68.7137702409999,-23.39665074599992],[-68.70993427899992,-23.397720859999936],[-68.70701943899991,-23.401855173999934],[-68.70456999999993,-23.41751999999991],[-68.7045399989999,-23.42790999999994],[-68.70504999999991,-23.440339999999935],[-68.70723999899991,-23.444059999999922],[-68.70650999999992,-23.44723999999991],[-68.69914999999992,-23.45375999999993],[-68.69887999999992,-23.456139999999948],[-68.70236999999992,-23.46419999999995],[-68.70291486899993,-23.46865854099991],[-68.6982749199999,-23.49185828599991],[-68.6977990279999,-23.500929980999956],[-68.69803006399991,-23.503362250999942],[-68.7015602699999,-23.505302069999914],[-68.7025103599999,-23.507889904999956],[-68.7017251389999,-23.512149139999906],[-68.69732313599991,-23.518502300999955],[-68.69394430099993,-23.529899918999945],[-68.6943250139999,-23.53246973699993],[-68.70262933299995,-23.53453986799991],[-68.70533999899993,-23.538769998999953],[-68.70482999899991,-23.55445999999995],[-68.70703133699993,-23.557382693999955],[-68.70867316399995,-23.56723366199992],[-68.70793553199991,-23.56997004199991],[-68.69416999999993,-23.582859999999926],[-68.69077961799991,-23.591742110999917],[-68.68547341899995,-23.598571163999907],[-68.68592999999993,-23.605819999999937],[-68.68871999799995,-23.612209999999948],[-68.68777999999992,-23.62295999899993],[-68.68563998099995,-23.629980048999926],[-68.6869202389999,-23.63455835299993],[-68.68631999999991,-23.64080999999993],[-68.68052414099992,-23.64380471699991],[-68.67981030199991,-23.65094309999995],[-68.67446999799995,-23.655089998999927],[-68.67346000099991,-23.657329998999955],[-68.67793052899992,-23.681638146999944],[-68.67703972099991,-23.68411797999994],[-68.6694834409999,-23.687824745999933],[-68.6651052329999,-23.69955548899992],[-68.66895999899992,-23.708429999999908],[-68.66987028799991,-23.71534066499993],[-68.67728807399993,-23.732320666999954],[-68.67687029899992,-23.73499787299994],[-68.6791202579999,-23.737531685999954],[-68.67921999799995,-23.740479999999934],[-68.67732999999993,-23.741589998999928],[-68.67461735299992,-23.747971347999908],[-68.67859999899991,-23.759469999999908],[-68.6801799989999,-23.760179998999945],[-68.68123999799991,-23.763400000999923],[-68.68385999799995,-23.77520999999996],[-68.6856499989999,-23.77735999999993],[-68.68699530799995,-23.782706719999908],[-68.6862198039999,-23.78608223799995],[-68.68761999799995,-23.79135999899995],[-68.6895299979999,-23.79421999899995],[-68.69012999899991,-23.80502999899994],[-68.6885099989999,-23.80860999899994],[-68.69061037499995,-23.821068113999956],[-68.68979355399995,-23.827864130999956],[-68.69292016599991,-23.839142775999903],[-68.6928202279999,-23.84670946199992],[-68.68867999899993,-23.855149998999934],[-68.68397999899992,-23.86074999999994],[-68.6874807179999,-23.874049468999942],[-68.6868699979999,-23.880759999999952],[-68.69065999999992,-23.894249999999943],[-68.69608000099993,-23.905889999999943],[-68.69854999899991,-23.923129999999958],[-68.41873001099992,-23.98923008199995],[-68.34535000099993,-23.999309999999923],[-68.11782999999991,-24.238119998999935],[-68.06845794199995,-24.32701529299993],[-67.32261666699992,-24.034161110999946],[-66.99050278899995,-23.000005561999956],[-67.18030266799991,-22.814171513999952],[-67.56850769899995,-22.898041571999954],[-67.79906314199991,-22.881177916999945],[-67.8011872969999,-22.87777179099993],[-67.8128953019999,-22.869571854999947],[-67.81966751399995,-22.861812421999957],[-67.82526199199992,-22.857781615999954],[-67.82980202899995,-22.856238186999917],[-67.82467236199994,-22.850779943999953],[-67.82419190199994,-22.84787996299991],[-67.8260913389999,-22.84528432199994],[-67.83467516599995,-22.844607381999936],[-67.8393943179999,-22.848190616999943],[-67.8422185419999,-22.84815547799991],[-67.84701930999995,-22.84515048299994],[-67.85583924499991,-22.84249928299994],[-67.8588724629999,-22.837435514999925],[-67.86391523999993,-22.835005272999922],[-67.87007423799992,-22.833510039999908],[-67.88181670499995,-22.834065907999957],[-67.88348743899991,-22.82895879399996],[-67.88174983399995,-22.827053854999917],[-67.87905677799995,-22.81463645799994],[-67.88207402899991,-22.806935754999927],[-67.8795940949999,-22.803836541999942],[-67.87734879899995,-22.79278129699992],[-67.87512600299993,-22.78965134999993],[-67.87588465499994,-22.782733638999957],[-67.87385423099994,-22.778905128999952],[-67.87299197499993,-22.768412394999928],[-67.87384830299993,-22.760780479999937],[-67.87706764299992,-22.75483507699994],[-67.87259134099992,-22.751950490999945],[-67.86711197799991,-22.741871772999957],[-67.8688961659999,-22.741983648999906],[-67.87584662699993,-22.738017743999933],[-67.88051310199995,-22.728108970999926],[-67.88526699999994,-22.728070205999927],[-67.8853481669999,-22.723864011999922],[-67.88795605599995,-22.72013301699991],[-67.8904802369999,-22.718953271999908],[-67.88653990899991,-22.715627859999927],[-67.8864522369999,-22.70766464199994],[-67.8876705209999,-22.70435243199995],[-67.88519588199995,-22.700488186999905],[-67.88047852699992,-22.69914323699993],[-67.87044322299994,-22.693254624999952],[-67.87228819699993,-22.690985844999943],[-67.86804857899995,-22.680570158999956],[-67.87192584499991,-22.671741399999917],[-67.88912579399994,-22.66599653399993],[-67.87736173799993,-22.666034605999926],[-67.8751596159999,-22.66126227199993],[-67.87725954599995,-22.65848454199994],[-67.87623396499993,-22.65265428799995],[-67.87699560999994,-22.647652818999916],[-67.87497371699993,-22.63896484299994],[-67.87975086299991,-22.638100598999927],[-67.87998867699991,-22.635760168999923],[-67.8784953199999,-22.634205920999932],[-67.8839947969999,-22.627459320999947],[-67.8764991139999,-22.624802012999908],[-67.8659133669999,-22.62699791299991],[-67.85706911599993,-22.621136119999903],[-67.85900923399993,-22.617494465999926],[-67.85490537399994,-22.614862762999905],[-67.85875730399994,-22.610061833999907],[-67.8635332689999,-22.60801281399995],[-67.8629812339999,-22.599621645999946],[-67.86018536699993,-22.596617575999915],[-67.84830356299994,-22.59438514099992],[-67.84633575999993,-22.592969833999916],[-67.84355986899993,-22.593829298999935],[-67.8420322099999,-22.59053702999995],[-67.83755981999991,-22.587715035999906],[-67.83616196999992,-22.58344923699991],[-67.83199811799994,-22.581292025999915],[-67.8338625799999,-22.578682388999937],[-67.83734254099994,-22.579574685999944],[-67.83966513599995,-22.578467776999958],[-67.84021320099993,-22.574480628999936],[-67.8446428549999,-22.572528931999955],[-67.84578329599992,-22.570003845999906],[-67.8433466699999,-22.567049892999933],[-67.84585452099992,-22.56608493899995],[-67.8435452839999,-22.561363809999932],[-67.8528858169999,-22.55754359799994],[-67.84379495199994,-22.547679924999954],[-67.8441345139999,-22.54556139899995],[-67.84703884499993,-22.543049959999905],[-67.84281384199994,-22.53883025899995],[-67.8394671069999,-22.53755145899993],[-67.84096340099995,-22.533074996999915],[-67.84643359699993,-22.530479656999944],[-67.85159292999992,-22.529930300999922],[-67.85698383699992,-22.53079071399992],[-67.85933273299992,-22.533905518999916],[-67.8622986009999,-22.534559780999928],[-67.87132742499995,-22.531223862999923],[-67.87300445999995,-22.52471486199994],[-67.87734530299991,-22.52076597699994],[-67.87694227399993,-22.514931756999943],[-67.88707777799993,-22.508099999999956],[-67.88784838299995,-22.505352131999928],[-67.89290410699994,-22.49910671899994],[-67.89248360199991,-22.447377322999955],[-67.88540170499994,-22.44538498299994],[-67.8838312609999,-22.44202994299991],[-67.88714594099991,-22.43757508199991],[-67.89465780899991,-22.436652360999915],[-67.89752179899995,-22.43450605499993],[-67.89748348499995,-22.428941969999926],[-67.90044278099992,-22.426610421999953],[-67.89737971799991,-22.423188289999928],[-67.8981368769999,-22.420419048999918],[-67.9047771889999,-22.41937437699994],[-67.90389011699995,-22.41143007499994],[-67.90125480899991,-22.41096646299991],[-67.90005147699992,-22.407096091999904],[-67.90373793799995,-22.40636590699995],[-67.9031703739999,-22.402068193999924],[-67.90980850199992,-22.397869977999903],[-67.91282202899993,-22.39902789799993],[-67.9189909989999,-22.396306444999937],[-67.92293261299994,-22.39236580499994],[-67.93336333999991,-22.38956652199994],[-67.9386757389999,-22.382651791999933],[-67.9430189489999,-22.381749044999935]]]}},{"type":"Feature","properties":{"cut":2302,"comuna":"MARÍA ELENA"},"geometry":{"type":"Polygon","coordinates":[[[-68.93596996899993,-21.43571042399992],[-68.86080999899991,-21.28511999999995],[-69.31306999999993,-21.398169999999936],[-69.55126560399992,-21.630609919999927],[-69.55328908399991,-21.626486635999925],[-69.55775221099992,-21.624936420999916],[-69.5569404119999,-21.62325167499995],[-69.55790257799993,-21.621713146999923],[-69.55916464899991,-21.62329883399991],[-69.56274856199991,-21.623162812999908],[-69.5633843299999,-21.620794117999935],[-69.56617957999993,-21.62072970899993],[-69.56690246199992,-21.615338253999937],[-69.57209845299991,-21.61251247599995],[-69.57259724199992,-21.60992975499994],[-69.57877362799991,-21.60563233499994],[-69.57922358499991,-21.599012659999914],[-69.5780329339999,-21.596418721999953],[-69.58310863899993,-21.592198277999955],[-69.58472152999991,-21.587516071999914],[-69.58668286799991,-21.586066210999945],[-69.58632433399993,-21.583621513999958],[-69.59435108199995,-21.572418565999953],[-69.5945966509999,-21.56811033799994],[-69.59725506399991,-21.566694786999903],[-69.5987985189999,-21.560495888999924],[-69.60500856599992,-21.55584767299996],[-69.60613844699992,-21.55355951899992],[-69.61059882499995,-21.551777965999918],[-69.61058279699995,-21.550188179999907],[-69.62586543999993,-21.545710656999915],[-69.6250739649999,-21.540419996999958],[-69.62804400399995,-21.53777737599995],[-69.62760488099991,-21.53485810199993],[-69.63322987599992,-21.531595758999913],[-69.62762365999993,-21.531592820999947],[-69.6260140199999,-21.528976171999943],[-69.62977472499995,-21.526045477999958],[-69.62964747399991,-21.52044531599995],[-69.6353601209999,-21.514840569999933],[-69.63587277099992,-21.50986075499992],[-69.64074952199991,-21.506158055999947],[-69.6393202029999,-21.499749322999946],[-69.6442710039999,-21.49912287099994],[-69.64983678199991,-21.495580625999935],[-69.65558689699992,-21.485505047999936],[-69.66189085399992,-21.481419599999924],[-69.66097706099993,-21.478750531999935],[-69.66489399299991,-21.474458630999948],[-69.6670459419999,-21.46210575099991],[-69.67734095499992,-21.460964599999954],[-69.6785692279999,-21.461740145999954],[-69.6838989179999,-21.458693783999934],[-69.68802572899995,-21.458916306999924],[-69.6885703339999,-21.454161479999925],[-69.69372146899991,-21.450454228999945],[-69.69584881199995,-21.45076361799994],[-69.69752189999991,-21.452872251999906],[-69.7011330329999,-21.45318885599994],[-69.70151171599991,-21.455221412999947],[-69.70643446399993,-21.453123173999927],[-69.70770144599993,-21.449989772999913],[-69.71178255799992,-21.45045750999992],[-69.7133389569999,-21.452508611999917],[-69.71852332599991,-21.450448501999915],[-69.7227500589999,-21.45202772999994],[-69.72532869499992,-21.448537124999916],[-69.7285029489999,-21.44950332399992],[-69.73230842299995,-21.446112444999926],[-69.7342976079999,-21.44744254999995],[-69.73490112999991,-21.44444178799995],[-69.7381654799999,-21.44440762599993],[-69.74707098199991,-21.43767898099992],[-69.7548592679999,-21.43383794999994],[-69.75616014999991,-21.430847583999935],[-69.75583514399995,-21.42778536299994],[-69.76258099899991,-21.425403814999925],[-69.76424648299991,-21.42040226799992],[-69.76697806899995,-21.42068551199992],[-69.7681335229999,-21.423309592999942],[-69.7717429349999,-21.425160165999955],[-69.77683339099991,-21.42617600999995],[-69.7798161369999,-21.43092841899994],[-69.78205949599993,-21.432052123999938],[-69.78238992399992,-21.433475296999916],[-69.77895113999995,-21.437644569999918],[-69.7810336739999,-21.440699921999908],[-69.7876638109999,-21.437388644999942],[-69.79150672199995,-21.440214607999906],[-69.7962819679999,-21.438381739999954],[-69.8017944099999,-21.440545121999946],[-69.8094616379999,-21.439675717999933],[-69.81862951099993,-21.436483106999958],[-69.82327279499992,-21.439964604999943],[-69.8263372319999,-21.43919250899995],[-69.8289043979999,-21.440581377999933],[-69.82940183799991,-21.55766220399994],[-69.83559337699995,-21.751981694999927],[-69.90420345799993,-21.870103120999943],[-69.90227436599992,-21.873042524999903],[-69.89805995499995,-21.87390716899995],[-69.88740251199994,-21.87105291499995],[-69.87191903999991,-21.86925034399991],[-69.85261287599991,-21.873509003999914],[-69.8474422999999,-21.877423991999933],[-69.84664016499994,-21.882073891999937],[-69.8434078969999,-21.888082649999944],[-69.83277241899992,-21.89212315599991],[-69.83002597899991,-21.896302964999904],[-69.81003362199993,-21.89956293499995],[-69.8055408969999,-21.901308825999934],[-69.80293005999994,-21.909258446999957],[-69.79768153099991,-21.913575625999954],[-69.79901930799991,-21.918812490999926],[-69.79765226299992,-21.922141112999952],[-69.7947789939999,-21.92456121999993],[-69.79052780699993,-21.939559904999953],[-69.78782279899991,-21.941279572999917],[-69.78309370599993,-21.94840416799991],[-69.78620144699994,-21.95159332399993],[-69.7881325379999,-21.95857778699991],[-69.7422143789999,-22.026686786999903],[-69.75473996399995,-22.07915001799995],[-69.75440911099992,-22.082671950999952],[-69.76028965499995,-22.088091574999908],[-69.77381689099991,-22.09415920099991],[-69.78199033899995,-22.103796017999912],[-69.78138357699993,-22.115038970999933],[-69.77913498599992,-22.123926257999926],[-69.77981596699993,-22.13317619499992],[-69.77636450599994,-22.148281587999918],[-69.77152060499992,-22.15608710799995],[-69.77415334099993,-22.17266418099996],[-69.77311992799991,-22.175242148999928],[-69.77383369599994,-22.17794559099991],[-69.77062328699992,-22.18289477499991],[-69.7726437959999,-22.18908692599996],[-69.78124411399995,-22.19413404499994],[-69.78798961399991,-22.196362939999915],[-69.79558355299991,-22.19458863099993],[-69.8141211439999,-22.201012086999924],[-69.82855159099995,-22.193962230999944],[-69.84599311799991,-22.193085157999917],[-69.8492571939999,-22.18546057599991],[-69.85227393699995,-22.18895165099991],[-69.8550720739999,-22.18863019799994],[-69.85805779599991,-22.185297352999953],[-69.86132626999995,-22.174331606999942],[-69.86439606199991,-22.171352931999934],[-69.86476584799993,-22.167861253999945],[-69.86713512699993,-22.168174630999943],[-69.86854855099995,-22.167035824999914],[-69.87078412199992,-22.171939531999953],[-69.87172190099994,-22.18424377699995],[-69.8741965399999,-22.195712778999905],[-69.87638138699992,-22.20087766799992],[-69.87952653299993,-22.204183659999956],[-69.89228044399994,-22.20965642099992],[-69.90727104799993,-22.21969774599995],[-69.93149396099994,-22.22778791299993],[-69.93325476199993,-22.230024606999905],[-69.93458726099993,-22.235687723999945],[-69.93653841899993,-22.236258794999912],[-69.94039314499992,-22.234545582999942],[-69.9470556359999,-22.228644518999943],[-69.9504820599999,-22.228454162999924],[-69.95662106899994,-22.231404693999934],[-69.96214141899992,-22.239018968999915],[-69.96613003099992,-22.248642940999957],[-69.96918782099993,-22.250741726999934],[-69.9743480539999,-22.25148734499993],[-69.97648086999993,-22.255599418999907],[-69.97639163999992,-22.261904990999938],[-69.97766197899995,-22.263429575999908],[-69.97459603999994,-22.26685640699992],[-69.97173979299993,-22.27467079899992],[-69.97180678199993,-22.279095853999934],[-69.9739511329999,-22.285386307999943],[-69.96313213099995,-22.299652201999947],[-69.96178594299994,-22.30339525599993],[-69.96409700799995,-22.314717163999944],[-69.96348135399995,-22.318088901999943],[-69.96660019899991,-22.32262715199994],[-69.96894175599994,-22.33021610299994],[-69.97703741299995,-22.33834000899992],[-69.97869248599994,-22.34262584499993],[-69.98146751799993,-22.344404476999955],[-69.9823937459999,-22.346968776999915],[-69.97809031199995,-22.359369131999927],[-69.97657268099994,-22.369693141999903],[-69.97781852899993,-22.374649415999954],[-69.97264541699991,-22.381915059999926],[-69.9735117319999,-22.386732826999946],[-69.97187257399992,-22.390544736999914],[-69.97444720099992,-22.390599654999903],[-69.97471001199995,-22.393734250999955],[-69.97068437299993,-22.40226513899995],[-69.97111499199991,-22.406275130999916],[-69.96853990399995,-22.416616276999946],[-69.96966028499992,-22.42051512799992],[-69.96454999999992,-22.42539999999991],[-69.96657812899991,-22.433926348999933],[-69.96372463699993,-22.443410163999943],[-69.96577531499992,-22.444811598999934],[-69.96584375599991,-22.44781019699991],[-69.96310616599993,-22.453540027999907],[-69.95574204999991,-22.45963151299992],[-69.94815802799991,-22.46135191399992],[-69.93405022899992,-22.470855831999927],[-69.9203371289999,-22.472122535999915],[-69.91725794999991,-22.476796700999955],[-69.91726999999992,-22.48614148699994],[-69.91994483499991,-22.495403332999956],[-69.91944067399993,-22.504109683999957],[-69.92055999999991,-22.50915999999995],[-69.9182054659999,-22.519577004999917],[-69.9197409169999,-22.529238235999912],[-69.91592349099994,-22.538681583999903],[-69.92204999899991,-22.540779999999927],[-69.91738194899995,-22.548862656999916],[-69.91745643099995,-22.55199221299995],[-69.91489016199995,-22.55641048399991],[-69.9095427499999,-22.56133678099991],[-69.90857000299991,-22.564002538999944],[-69.90850007899991,-22.57550210599993],[-69.90239643399991,-22.594113111999945],[-69.90287922899995,-22.610663557999942],[-69.90019242799991,-22.617439919999924],[-69.89903012699995,-22.625079395999933],[-69.89371009999991,-22.635149398999943],[-69.89848733899993,-22.639295982999954],[-69.89979382299992,-22.64257217499994],[-69.90052716699995,-22.64823630199993],[-69.89929773999995,-22.65274166599994],[-69.90356772399991,-22.65863429199993],[-69.90609516399991,-22.660160151999946],[-69.90670321199991,-22.663038247999907],[-69.91178926799995,-22.67076422699995],[-69.91660575799995,-22.67409249499991],[-69.9248907779999,-22.695322026999918],[-69.92577266899991,-22.714954556999942],[-69.9303582249999,-22.727406927999937],[-69.93249492299992,-22.738256546999935],[-69.9349898609999,-22.742613888999927],[-69.93500408499995,-22.744704918999957],[-69.93098187699991,-22.75223474099994],[-69.93277535699991,-22.755900659999952],[-69.93367000199993,-22.771800001999907],[-69.94615655799993,-22.784257320999927],[-69.94846588299993,-22.796446939999953],[-69.95218547699994,-22.799360433999937],[-69.95161163799992,-22.80164915699993],[-69.95472987599993,-22.807280523999907],[-69.95362766999995,-22.81781934199995],[-69.95213420599993,-22.818970917999934],[-69.9493154669999,-22.826218471999937],[-69.94924827799991,-22.831986294999922],[-69.95267671099992,-22.83912428499991],[-69.96345258999992,-22.84992130799992],[-69.96501093299992,-22.865520387999936],[-69.96605294999995,-22.868747769999914],[-69.9700199589999,-22.871591507999938],[-69.83155999999991,-22.870609999999942],[-69.5334898829999,-22.880708709999908],[-69.19172969699991,-22.576541815999917],[-69.14611014699994,-22.451898575999905],[-69.16451008999991,-22.34118150799992],[-69.17485337599993,-22.22660317099991],[-68.9312697599999,-21.827240065999945],[-68.99317998799995,-21.635930741999914],[-68.93596996899993,-21.43571042399992]]]}}]}